0 BREEZE-M DEB
1 38895U 12044AC  13282.57446630  .00134062  45982-5  37046-2 0  4070
2 38895 049.7110 333.3152 2237830 124.2280 259.1190 10.95772379 37626
0 BREEZE-M DEB
1 38895U 12044AC  13283.12163015  .00132822  45690-5  36721-2 0  4083
2 38895 049.7111 331.9206 2237156 125.4062 257.6783 10.95906011 37682
0 BREEZE-M DEB
1 38895U 12044AC  13284.12457565  .00128534  44759-5  35613-2 0  4090
2 38895 049.7100 329.3667 2235928 127.5483 255.0273 10.96134147 37799
0 BREEZE-M DEB
1 38895U 12044AC  13285.49186295  .00123243  43623-5  34121-2 0  4117
2 38895 049.7104 325.8764 2234408 130.4990 251.3116 10.96462244 37944
0 BREEZE-M DEB
1 38895U 12044AC  13286.49427383  .00120747  43060-5  33471-2 0  4123
2 38895 049.7100 323.3180 2233217 132.6550 248.5477 10.96693860 38059
0 BREEZE-M DEB
1 38895U 12044AC  13287.49646281  .00146597  48164-5  40586-2 0  4131
2 38895 049.7092 320.7601 2232039 134.8078 245.7484 10.96931592 38164
0 BREEZE-M DEB
1 38895U 12044AC  13288.31624832  .00163833  52120-5  45290-2 0  4148
2 38895 049.7086 318.6668 2230848 136.5709 243.4244 10.97186263 38259
0 BREEZE-M DEB
1 38895U 12044AC  13289.04477925  .00152923  49432-5  42301-2 0  4159
2 38895 049.7080 316.8056 2229838 138.1399 241.3353 10.97392507 38331
0 BREEZE-M DEB
1 38895U 12044AC  13289.68213187  .00155812  50028-5  43090-2 0  4167
2 38895 049.7077 315.1764 2229054 139.5115 239.4935 10.97555411 38403
0 BREEZE-M DEB
1 38895U 12044AC  13289.95525162  .00146235  47811-5  40474-2 0  4175
2 38895 049.7077 314.4788 2228702 140.0993 238.6995 10.97623428 38435
0 BREEZE-M DEB
1 38895U 12044AC  13290.50145485  .00096614  00000-0  26714-2 0  4185
2 38895 049.7079 313.0856 2227387 141.2627 237.1671 10.97788964 38491
0 BREEZE-M DEB
1 38895U 12044AC  13290.95653194  .00140723  46496-5  38918-2 0  4189
2 38895 049.7073 311.9176 2227402 142.2546 235.7645 10.97905608 38543
0 BREEZE-M DEB
1 38895U 12044AC  13292.13952708  .00140086  46205-5  38698-2 0  4190
2 38895 049.7066 308.8922 2225969 144.7974 232.2569 10.98216275 38674
0 BREEZE-M DEB
1 38895U 12044AC  13292.59443327  .00146156  47456-5  40361-2 0  4207
2 38895 049.7066 307.7274 2225351 145.7753 230.8945 10.98343864 38726
0 BREEZE-M DEB
1 38895U 12044AC  13293.14025025  .00141648  46399-5  39140-2 0  4210
2 38895 049.7066 306.3300 2224714 146.9523 229.2465 10.98470257 38783
0 BREEZE-M DEB
1 38895U 12044AC  13294.14073043  .00148864  47836-5  41048-2 0  4229
2 38895 049.7065 303.7681 2223588 149.1109 226.1992 10.98724936 38897
0 BREEZE-M DEB
1 38895U 12044AC  13294.59541331  .00164553  51485-5  45300-2 0  4232
2 38895 049.7064 302.6033 2223005 150.0909 224.8045 10.98857538 38943
0 BREEZE-M DEB
1 38895U 12044AC  13295.14096174  .00151766  48346-5  41790-2 0  4248
2 38895 049.7063 301.2055 2222408 151.2703 223.1186 10.98984691 39009
0 BREEZE-M DEB
1 38895U 12044AC  13295.50462577  .00164274  51280-5  45155-2 0  4251
2 38895 049.7063 300.2736 2221914 152.0530 221.9942 10.99102493 39045
0 BREEZE-M DEB
1 38895U 12044AC  13296.14095173  .00155333  49025-5  42692-2 0  4260
2 38895 049.7062 298.6425 2221131 153.4269 220.0117 10.99270547 39112
